NORAD_CAT_ID,OBJECT_NAME,OBJECT_TYPE,EPOCH,MEAN_MOTION,ECCENTRICITY,INCLINATION,RA_OF_ASC_NODE,ARG_OF_PERICENTER,MEAN_ANOMALY,BSTAR,MEAN_MOTION_DOT,MEAN_MOTION_DDOT,TLE_LINE0,TLE_LINE1,TLE_LINE2,SEMIMAJOR_AXIS,PERIOD,APOGEE,PERIGEE,DECAYED
53282.0,STARLINK-4164,PAYLOAD,2022-09-20 14:00:01,15.73157527,0.0001855999999999,53.2157,116.0545,35.6181,220.1084,0.0003707,0.00051632,0.0,0 STARLINK-4164,1 53282U 22086AS  22263.58334491  .00051632  00000-0  37070-3 0  9997,2 53282  53.2157 116.0545 0001856  35.6181 220.1084 15.73157527  1305,6728.016,91.536,351.13,348.6330000000001,0.0
53282.0,STARLINK-4164,PAYLOAD,2022-09-20 22:00:01,15.7318474,0.0002112999999999,53.2157,114.4072,32.356,312.3428,0.00029244,0.00040595,0.0,0 STARLINK-4164,1 53282U 22086AS  22263.91668981  .00040595  00000-0  29244-3 0  9998,2 53282  53.2157 114.4072 0002113  32.3560 312.3428 15.73184740  1307,6727.939,91.534,351.225,348.38199999999995,0.0
53282.0,STARLINK-4164,PAYLOAD,2022-09-21 06:00:00,15.73199464,0.0002159,53.2153,112.7569,36.8368,36.6931,0.00021361,0.00029464,0.0,0 STARLINK-4164,1 53282U 22086AS  22264.25001157  .00029464  00000-0  21361-3 0  9996,2 53282  53.2153 112.7569 0002159  36.8368  36.6931 15.73199464  9874,6727.897,91.533,351.214,348.309,0.0
53282.0,STARLINK-4164,PAYLOAD,2022-09-21 22:00:00,15.73276005,0.0002217,53.2158,109.458,33.1184,218.3471,-0.00017328,-0.0002495,0.0,0 STARLINK-4164,1 53282U 22086AS  22264.91667824 -.00024950  00000-0 -17328-3 0  9993,2 53282  53.2158 109.4580 0002217  33.1184 218.3471 15.73276005  1301,6727.678000000001,91.529,351.035,348.052,0.0
53282.0,STARLINK-4164,PAYLOAD,2022-09-22 06:00:00,15.73275259,0.0001955,53.216,107.7999,25.505,314.8727,-0.00094294,-0.00131345,0.0,0 STARLINK-4164,1 53282U 22086AS  22265.25001157 -.00131345  00000-0 -94294-3 0  9996,2 53282  53.2160 107.7999 0001955  25.5050 314.8727 15.73275259 10029,6727.681,91.529,350.861,348.23,0.0
53282.0,STARLINK-4164,PAYLOAD,2022-09-22 14:00:01,15.73210218,0.0002024,53.2165,106.1391,24.3758,44.983,-0.0040345,-0.00532731,0.0,0 STARLINK-4164,1 53282U 22086AS  22265.58334491 -.00532731  00000-0 -40345-2 0  9993,2 53282  53.2165 106.1391 0002024  24.3758  44.9830 15.73210218  1304,6727.866,91.533,351.093,348.369,0.0
53282.0,STARLINK-4164,PAYLOAD,2022-09-22 22:00:00,15.72832026,0.0001841999999999,53.2177,104.4873,31.192,126.9243,-0.0074512,-0.00923359,0.0,0 STARLINK-4164,1 53282U 22086AS  22265.91667824 -.00923359  00000-0 -74512-2 0  9992,2 53282  53.2177 104.4873 0001842  31.1920 126.9243 15.72832026  1302,6728.944,91.555,352.0490000000001,349.57,0.0
53282.0,STARLINK-4164,PAYLOAD,2022-09-23 06:00:00,15.72161409,0.0001682,53.2175,102.8344,34.2864,211.9144,-0.0087712,-0.0105902999999999,0.0,0 STARLINK-4164,1 53282U 22086AS  22266.25001157 -.01059030  00000-0 -87712-2 0  9994,2 53282  53.2175 102.8344 0001682  34.2864 211.9144 15.72161409 10189,6730.858,91.594,353.855,351.591,0.0
53282.0,STARLINK-4164,PAYLOAD,2022-09-23 14:00:01,15.71372289,0.0006473,53.2169,101.1918,270.91,62.51600000000001,-0.0087035,-0.01022663,0.0,0 STARLINK-4164,1 53282U 22086AS  22266.58334491 -.01022663  00000-0 -87035-2 0  9990,2 53282  53.2169 101.1918 0006473 270.9100  62.5160 15.71372289  1307,6733.111,91.64,359.334,350.61800000000005,0.0
53282.0,STARLINK-4164,PAYLOAD,2022-09-23 22:00:00,15.70660769,0.0001333,53.2172,99.5489,23.6044,36.094,-0.0095713999999999,-0.01081466,0.0,0 STARLINK-4164,1 53282U 22086AS  22266.91667824 -.01081466  00000-0 -95714-2 0  9995,2 53282  53.2172  99.5489 0001333  23.6044  36.0940 15.70660769  1308,6735.144,91.681,357.907,356.112,0.0
53282.0,STARLINK-4164,PAYLOAD,2022-09-24 14:00:01,15.69155143,0.0001610999999999,53.2168,96.2624,47.753,181.8629,-0.010331,-0.01094426,0.0,0 STARLINK-4164,1 53282U 22086AS  22267.58335648 -.01094426  00000-0 -10331-1 0  9996,2 53282  53.2168  96.2624 0001611  47.7530 181.8629 15.69155143  1300,6739.4519999999975,91.769,362.403,360.231,0.0
53282.0,STARLINK-4164,PAYLOAD,2022-09-24 22:00:00,15.68361747,0.0001576999999999,53.2176,94.6242,35.2262,277.9039,-0.010236,-0.01053763,0.0,0 STARLINK-4164,1 53282U 22086AS  22267.91667824 -.01053763  00000-0 -10236-1 0  9990,2 53282  53.2176  94.6242 0001577  35.2262 277.9039 15.68361747  1302,6741.725,91.816,364.653,362.527,0.0
53282.0,STARLINK-4164,PAYLOAD,2022-09-25 06:00:00,15.67601195,0.0001327,53.2176,92.9856,40.9556,354.824,-0.010541,-0.01051771,0.0,0 STARLINK-4164,1 53282U 22086AS  22268.25001157 -.01051771  00000-0 -10541-1 0  9995,2 53282  53.2176  92.9856 0001327  40.9556 354.8240 15.67601195 10500,6743.905,91.86,366.665,364.875,0.0
53282.0,STARLINK-4164,PAYLOAD,2022-09-25 14:00:01,15.66854416,0.0001699,53.2169,91.3512,34.6958,82.8117,-0.011042,-0.01066971,0.0,0 STARLINK-4164,1 53282U 22086AS  22268.58334491 -.01066971  00000-0 -11042-1 0  9996,2 53282  53.2169  91.3512 0001699  34.6958  82.8117 15.66854416  1306,6746.0480000000025,91.904,369.059,366.767,0.0
53282.0,STARLINK-4164,PAYLOAD,2022-09-25 22:00:01,15.66078853,0.0001576999999999,53.2175,89.7193,44.7156,153.6871,-0.011141,-0.01045445,0.0,0 STARLINK-4164,1 53282U 22086AS  22268.91668981 -.01045445  00000-0 -11141-1 0  9990,2 53282  53.2175  89.7193 0001577  44.7156 153.6871 15.66078853  1303,6748.275,91.949,371.204,369.076,0.0
53282.0,STARLINK-4164,PAYLOAD,2022-09-26 10:00:00,15.64942341,0.0001601,53.2172,87.2706,39.5831,98.2777,-0.011726,-0.01050437,0.0,0 STARLINK-4164,1 53282U 22086AS  22269.41667824 -.01050437  00000-0 -11726-1 0  9997,2 53282  53.2172  87.2706 0001601  39.5831  98.2777 15.64942341 10683,6751.542,92.016,374.48800000000006,372.326,0.0
53282.0,STARLINK-4164,PAYLOAD,2022-09-26 14:00:01,15.64587608,0.0001326,53.2168,86.4574,43.6821,313.548,-0.012264,-0.01096792,0.0,0 STARLINK-4164,1 53282U 22086AS  22269.58334491 -.01096792  00000-0 -12264-1 0  9998,2 53282  53.2168  86.4574 0001326  43.6821 313.5480 15.64587608  1305,6752.562,92.037,375.322,373.532,0.0
53282.0,STARLINK-4164,PAYLOAD,2022-09-26 22:00:00,15.63800601,0.0001693,53.2169,84.8321,35.6788,39.6499,-0.0122069999999999,-0.01045339,0.0,0 STARLINK-4164,1 53282U 22086AS  22269.91667824 -.01045339  00000-0 -12207-1 0  9992,2 53282  53.2169  84.8321 0001693  35.6788  39.6499 15.63800601  1304,6754.8269999999975,92.083,377.836,375.549,0.0
53282.0,STARLINK-4164,PAYLOAD,2022-09-27 06:00:00,15.63041934,0.0001610999999999,53.2175,83.2035,39.8561,112.6459,-0.012591,-0.01062335,0.0,0 STARLINK-4164,1 53282U 22086AS  22270.25001157 -.01062335  00000-0 -12591-1 0  9993,2 53282  53.2175  83.2035 0001611  39.8561 112.6459 15.63041934 10811,6757.013000000001,92.128,379.967,377.789,0.0
53282.0,STARLINK-4164,PAYLOAD,2022-09-27 14:00:01,15.62297605,0.0001593,53.2172,81.5803,46.8367,181.916,-0.013225,-0.01081699,0.0,0 STARLINK-4164,1 53282U 22086AS  22270.58334491 -.01081699  00000-0 -13225-1 0  9998,2 53282  53.2172  81.5803 0001593  46.8367 181.9160 15.62297605  1302,6759.159000000002,92.172,382.101,379.947,0.0
53282.0,STARLINK-4164,PAYLOAD,2022-09-27 22:00:01,15.61530424,0.0001695,53.2171,79.9603,36.8916,267.2753,-0.013484,-0.01071316,0.0,0 STARLINK-4164,1 53282U 22086AS  22270.91668981 -.01071316  00000-0 -13484-1 0  9991,2 53282  53.2171  79.9603 0001695  36.8916 267.2753 15.61530424  1306,6761.373000000001,92.217,384.384,382.092,0.0
53282.0,STARLINK-4164,PAYLOAD,2022-09-28 06:00:00,15.60764013,0.0001645,53.2175,78.3372,28.8671,349.6748,-0.013777,-0.01063226,0.0,0 STARLINK-4164,1 53282U 22086AS  22271.25001157 -.01063226  00000-0 -13777-1 0  9991,2 53282  53.2175  78.3372 0001645  28.8671 349.6748 15.60764013 10974,6763.5859999999975,92.263,386.564,384.338,0.0
53282.0,STARLINK-4164,PAYLOAD,2022-09-28 14:00:01,15.60005472,0.000182,53.2176,76.7193,30.5059,61.5565,-0.0142009999999999,-0.01064255,0.0,0 STARLINK-4164,1 53282U 22086AS  22271.58334491 -.01064255  00000-0 -14201-1 0  9993,2 53282  53.2176  76.7193 0001820  30.5059  61.5565 15.60005472  1304,6765.778,92.307,388.875,386.412,0.0
53282.0,STARLINK-4164,PAYLOAD,2022-09-28 22:00:00,15.59240409,0.0001865999999999,53.2173,75.1043,33.1765,131.4956,-0.014477,-0.01054486,0.0,0 STARLINK-4164,1 53282U 22086AS  22271.91667824 -.01054486  00000-0 -14477-1 0  9999,2 53282  53.2173  75.1043 0001866  33.1765 131.4956 15.59240409 11076,6767.991,92.353,391.119,388.593,0.0
53282.0,STARLINK-4164,PAYLOAD,2022-09-29 14:00:01,15.57764743,0.000128,53.2169,71.8758,3.9381,303.1915,-0.016222,-0.01111051,0.0,0 STARLINK-4164,1 53282U 22086AS  22272.58334491 -.01111051  00000-0 -16222-1 0  9996,2 53282  53.2169  71.8758 0001280   3.9381 303.1915 15.57764743 11170,6772.265,92.44,394.997,393.263,0.0
53282.0,STARLINK-4164,PAYLOAD,2022-09-29 22:00:00,15.57006568,0.0001483,53.2168,70.2668,34.1986,342.8007,-0.016741,-0.01114022,0.0,0 STARLINK-4164,1 53282U 22086AS  22272.91667824 -.01114022  00000-0 -16741-1 0  9999,2 53282  53.2168  70.2668 0001483  34.1986 342.8007 15.57006568  1304,6774.4630000000025,92.485,397.333,395.323,0.0
53282.0,STARLINK-4164,PAYLOAD,2022-09-30 06:00:02,15.562050199999998,0.0001548,53.2175,68.6545,37.1952,48.8501,-0.016307,-0.0105846,0.0,0 STARLINK-4164,1 53282U 22086AS  22273.25002315 -.01058460  00000-0 -16307-1 0  9996,2 53282  53.2175  68.6545 0001548  37.1952  48.8501 15.56205020 11288,6776.7890000000025,92.533,399.703,397.605,0.0
53282.0,STARLINK-4164,PAYLOAD,2022-09-30 14:00:01,15.55460025,0.0001556,53.2172,67.0484,45.552,108.4659,-0.0171039999999999,-0.01077858,0.0,0 STARLINK-4164,1 53282U 22086AS  22273.58334491 -.01077858  00000-0 -17104-1 0  9993,2 53282  53.2172  67.0484 0001556  45.5520 108.4659 15.55460025  1309,6778.953,92.577,401.87300000000016,399.763,0.0
53282.0,STARLINK-4164,PAYLOAD,2022-09-30 22:00:00,15.54688954,0.0001688,53.217,65.4443,39.3651,181.7897,-0.017294,-0.01060852,0.0,0 STARLINK-4164,1 53282U 22086AS  22273.91667824 -.01060852  00000-0 -17294-1 0  9995,2 53282  53.2170  65.4443 0001688  39.3651 181.7897 15.54688954  1306,6781.194,92.623,404.204,401.914,0.0
